GLOBALSTAR M035 [-]     
1 25851U 99037A   24071.24708830 -.00000101  00000+0 -14280-2 0  9995
2 25851  51.9997   7.3527 0013523 313.4344 218.1367 11.04528826 45108
GLOBALSTAR M032 [-]     
1 25852U 99037B   24071.81318686 -.00000089  00000+0 -71312-3 0  9990
2 25852  51.9922 223.1931 0010625 108.5262 251.6693 11.19049974 83087
GLOBALSTAR M051 [-]     
1 25853U 99037C   24071.28598344 -.00000080  00000+0 -18858-3 0  9990
2 25853  51.9785  77.5708 0001678 107.2600 252.8394 11.42194581 79490
GLOBALSTAR M030 [-]     
1 25854U 99037D   24071.55371903 -.00000067  00000+0  16871-3 0  9998
2 25854  51.9860 272.4528 0002934 308.1579  51.8973 11.55085377 96589
GLOBALSTAR M048 [-]     
1 25872U 99041A   24071.49176118 -.00000053  00000+0  46803-3 0  9990
2 25872  51.9411 354.2197 0013683 102.3213  68.9408 11.33843673 72497
GLOBALSTAR M026 [-]     
1 25873U 99041B   24071.47368373 -.00000127  00000+0 -23049-2 0  9994
2 25873  51.9993 129.6826 0001527 184.5765 188.4029 11.06835279 97255
GLOBALSTAR M043 [-]     
1 25874U 99041C   24071.35406466 -.00000039  00000+0  86923-3 0  9990
2 25874  51.9388  83.7413 0012863 243.3335 129.4601 11.25675291 70752
GLOBALSTAR M028 [-]     
1 25875U 99041D   24071.46651118 -.00000056  00000+0  28976-3 0  9992
2 25875  51.9612 132.7790 0063991 146.4323 214.0617 12.50551449132286
